KUIPER-00008            
1 63724U 25088A   25222.53897970  .00005243  00000+0  45179-3 0  9998
2 63724  51.8916 329.6030 0011577 108.5894 251.6335 14.98744511 16380
KUIPER-00009            
1 63725U 25088B   25222.58334491 -.00031112  00000+0 -19884-2 0  9997
2 63725  51.8839 322.0457 0012028 119.2800 170.3347 15.07938145 16483
KUIPER-00010            
1 63726U 25088C   25222.51747156  .00017371  00000+0  49000-3 0  9990
2 63726  51.8655 318.5967 0009148 121.1334 239.0551 15.36456078 16155
KUIPER-00011            
1 63727U 25088D   25221.57321788  .00021282  00000+0  60789-3 0  9998
2 63727  51.8586 323.4451 0010572 127.8377 232.3567 15.35908924 16148
KUIPER-00012            
1 63728U 25088E   25221.57016608  .00022168  00000+0  62992-3 0  9993
2 63728  51.8566 323.4113 0010712 129.1284 231.0656 15.36043601 16092
KUIPER-00013            
1 63729U 25088F   25222.58334491 -.00003115  00000+0 -21280-3 0  9997
2 63729  51.8859 322.7853 0007302  72.8521 218.3519 15.02281606 16289
KUIPER-00014            
1 63730U 25088G   25222.58334491 -.00000294  00000+0 -11871-5 0  9991
2 63730  51.8850 323.8432 0008689 113.5128  82.1247 15.03439054 16088
KUIPER-00015            
1 63731U 25088H   25222.04365960  .00000735  00000+0  12246-3 0  9991
2 63731  51.9005 337.3138 0011489 100.7581 259.4676 14.81132814 16318
